OBJECT_NAME,OBJECT_ID,EPOCH,MEAN_MOTION,ECCENTRICITY,INCLINATION,RA_OF_ASC_NODE,ARG_OF_PERICENTER,MEAN_ANOMALY,EPHEMERIS_TYPE,CLASSIFICATION_TYPE,NORAD_CAT_ID,ELEMENT_SET_NO,REV_AT_EPOCH,BSTAR,MEAN_MOTION_DOT,MEAN_MOTION_DDOT
ORBCOMM FM06,1997-084G,2026-06-27T05:44:33.133632,14.47586657,.00001479,45.0146,4.3203,28.8966,141.2193,0,U,25118,999,49584,.37492875E-3,.1248E-4,0
ORBCOMM FM04,1998-007C,2026-06-27T06:54:52.045632,14.35758408,.00416176,107.9627,190.2087,307.4206,52.3151,0,U,25159,999,47804,.3190062E-3,.8E-5,0
ORBCOMM FM19,1998-046C,2026-06-26T19:38:59.524800,14.39509459,.00043529,44.9920,197.7782,321.8205,208.5428,0,U,25415,999,45816,.25910601E-3,.673E-5,0
ORBCOMM FM20,1998-046D,2026-06-26T19:23:52.234944,14.38076614,.00024763,44.9920,205.8570,282.1745,77.8825,0,U,25416,999,45817,.20255144E-3,.477E-5,0
ORBCOMM FM27,1998-053G,2026-06-26T15:04:52.268736,14.39157684,.0001847,45.0059,290.5114,228.9736,131.0954,0,U,25481,999,45159,.29092E-3,.766E-5,0
ORBCOMM FM32,1999-065C,2026-06-27T03:52:45.189696,14.37142723,.00042912,45.0142,126.0257,93.9843,266.1495,0,U,25982,999,38852,.25583011E-3,.625E-5,0
ORBCOMM FM109,2014-040A,2026-06-26T14:49:58.984320,14.58854922,.0001974,47.0039,46.8982,271.3333,88.7326,0,U,40086,999,63572,.1246E-3,.418E-5,0
ORBCOMM FM110,2015-081D,2026-06-27T02:28:02.949888,14.58894320,.00026303,47.0031,314.5590,135.2880,224.8218,0,U,41182,999,55907,.17046043E-3,.635E-5,0
ORBCOMM FM118,2015-081E,2026-06-27T01:38:47.946336,14.58887549,.00022882,47.0054,315.0541,85.2498,274.8649,0,U,41183,999,55917,.12027303E-3,.397E-5,0
ORBCOMM FM112,2015-081F,2026-06-26T20:49:14.298240,14.58914222,.0004106,46.9974,224.4712,256.1813,103.8616,0,U,41184,999,56036,.11006E-3,.349E-5,0
ORBCOMM FM113,2015-081G,2026-06-26T20:16:02.022240,14.58866369,.00025954,46.9993,224.9614,257.9556,102.1039,0,U,41185,999,56034,.95260175E-4,.279E-5,0
ORBCOMM FM108,2015-081J,2026-06-27T03:34:50.117088,14.58885631,.00031449,47.0045,135.0963,258.7728,101.2805,0,U,41187,999,56153,.15773904E-3,.575E-5,0
ORBCOMM FM117,2015-081K,2026-06-26T13:36:18.639360,14.58871605,.0003648,47.0000,136.4805,260.3036,99.7438,0,U,41188,999,56149,.9733E-4,.289E-5,0
ORBCOMM FM116,2015-081L,2026-06-26T19:42:26.692992,14.58893573,.00006967,47.0008,225.0693,160.4089,199.6823,0,U,41189,999,56034,.1173219E-3,.384E-5,0
