ORBCOMM FM06            
1 25118U 97084G   26178.23927238  .00001248  00000+0  37493-3 0  9998
2 25118  45.0146   4.3203 0000147  28.8966 141.2193 14.47586657495846
ORBCOMM FM04            
1 25159U 98007C   26178.28810238  .00000800  00000+0  31901-3 0  9996
2 25159 107.9627 190.2087 0041617 307.4206  52.3151 14.35758408478049
ORBCOMM FM19            
1 25415U 98046C   26177.81874450  .00000673  00000+0  25911-3 0  9990
2 25415  44.9920 197.7782 0004352 321.8205 208.5428 14.39509459458165
ORBCOMM FM20            
1 25416U 98046D   26177.80824346  .00000477  00000+0  20255-3 0  9997
2 25416  44.9920 205.8570 0002476 282.1745  77.8825 14.38076614458175
ORBCOMM FM27            
1 25481U 98053G   26177.62838274  .00000766  00000+0  29092-3 0  9991
2 25481  45.0059 290.5114 0001847 228.9736 131.0954 14.39157684451599
ORBCOMM FM32            
1 25982U 99065C   26178.16163414  .00000625  00000+0  25583-3 0  9993
2 25982  45.0142 126.0257 0004291  93.9843 266.1495 14.37142723388522
ORBCOMM FM109           
1 40086U 14040A   26177.61804380  .00000418  00000+0  12460-3 0  9998
2 40086  47.0039  46.8982 0001974 271.3333  88.7326 14.58854922635728
ORBCOMM FM110           
1 41182U 15081D   26178.10281192  .00000635  00000+0  17046-3 0  9993
2 41182  47.0031 314.5590 0002630 135.2880 224.8218 14.58894320559075
ORBCOMM FM118           
1 41183U 15081E   26178.06861049  .00000397  00000+0  12027-3 0  9993
2 41183  47.0054 315.0541 0002288  85.2498 274.8649 14.58887549559170
ORBCOMM FM112           
1 41184U 15081F   26177.86752660  .00000349  00000+0  11006-3 0  9992
2 41184  46.9974 224.4712 0004106 256.1813 103.8616 14.58914222560361
ORBCOMM FM113           
1 41185U 15081G   26177.84446785  .00000279  00000+0  95260-4 0  9996
2 41185  46.9993 224.9614 0002595 257.9556 102.1039 14.58866369560349
ORBCOMM FM108           
1 41187U 15081J   26178.14919117  .00000575  00000+0  15774-3 0  9996
2 41187  47.0045 135.0963 0003144 258.7728 101.2805 14.58885631561537
ORBCOMM FM117           
1 41188U 15081K   26177.56688240  .00000289  00000+0  97330-4 0  9993
2 41188  47.0000 136.4805 0003648 260.3036  99.7438 14.58871605561493
ORBCOMM FM116           
1 41189U 15081L   26177.82114228  .00000384  00000+0  11732-3 0  9990
2 41189  47.0008 225.0693 0000696 160.4089 199.6823 14.58893573560349
